[
    {
        "CCSDS_OMM_VERS": "3.0",
        "COMMENT": "GENERATED VIA SPACE-TRACK.ORG API",
        "CREATION_DATE": "2025-03-01T04:47:04",
        "ORIGINATOR": "18 SPCS",
        "OBJECT_NAME": "GALILEO 5 (261)",
        "OBJECT_ID": "2014-050A",
        "CENTER_NAME": "EARTH",
        "REF_FRAME": "TEME",
        "TIME_SYSTEM": "UTC",
        "MEAN_ELEMENT_THEORY": "SGP4",
        "EPOCH": "2025-02-28T15:31:39.614592",
        "MEAN_MOTION": "1.85519637",
        "ECCENTRICITY": "0.16211430",
        "INCLINATION": "49.3877",
        "RA_OF_ASC_NODE": "292.7209",
        "ARG_OF_PERICENTER": "161.1013",
        "MEAN_ANOMALY": "205.7121",
        "EPHEMERIS_TYPE": "0",
        "CLASSIFICATION_TYPE": "U",
        "NORAD_CAT_ID": "40128",
        "ELEMENT_SET_NO": "999",
        "REV_AT_EPOCH": "6953",
        "BSTAR": "0.00000000000000",
        "MEAN_MOTION_DOT": "-0.00000013",
        "MEAN_MOTION_DDOT": "0.0000000000000",
        "SEMIMAJOR_AXIS": "27977.479",
        "PERIOD": "776.198",
        "APOAPSIS": "26134.894",
        "PERIAPSIS": "17063.795",
        "OBJECT_TYPE": "PAYLOAD",
        "RCS_SIZE": "LARGE",
        "COUNTRY_CODE": "ESA",
        "LAUNCH_DATE": "2014-08-22",
        "SITE": "FRGUI",
        "DECAY_DATE": null,
        "FILE": "4655475",
        "GP_ID": "281954719",
        "TLE_LINE0": "0 GALILEO 5 (261)",
        "TLE_LINE1": "1 40128U 14050A   25059.64698628 -.00000013  00000-0  00000-0 0  9990",
        "TLE_LINE2": "2 40128  49.3877 292.7209 1621143 161.1013 205.7121  1.85519637 69533"
    }
]